[{"OBJECT_NAME":"FLOCK 4G-36","OBJECT_ID":"2025-009BU","EPOCH":"2026-03-09T16:58:27.533568","MEAN_MOTION":15.27209548,"ECCENTRICITY":0.00034736,"INCLINATION":97.4053,"RA_OF_ASC_NODE":151.0513,"ARG_OF_PERICENTER":324.2456,"MEAN_ANOMALY":35.855,"EPHEMERIS_TYPE":0,"CLASSIFICATION_TYPE":"U","NORAD_CAT_ID":62675,"ELEMENT_SET_NO":999,"REV_AT_EPOCH":6370,"BSTAR":0.00051121743,"MEAN_MOTION_DOT":0.00013573,"MEAN_MOTION_DDOT":0},{"OBJECT_NAME":"STARLINK-32661","OBJECT_ID":"2025-024W","EPOCH":"2026-03-09T09:48:40.116960","MEAN_MOTION":15.27581087,"ECCENTRICITY":8.59e-6,"INCLINATION":42.994,"RA_OF_ASC_NODE":326.8932,"ARG_OF_PERICENTER":165.883,"MEAN_ANOMALY":194.2024,"EPHEMERIS_TYPE":0,"CLASSIFICATION_TYPE":"U","NORAD_CAT_ID":62899,"ELEMENT_SET_NO":999,"REV_AT_EPOCH":6222,"BSTAR":0.00088569516,"MEAN_MOTION_DOT":0.00024191,"MEAN_MOTION_DDOT":0}]
